[{"OBJECT_NAME":"YAOGAN-35 04B","OBJECT_ID":"2022-100C","EPOCH":"2026-03-09T23:42:44.729280","MEAN_MOTION":15.33187585,"ECCENTRICITY":0.00030912,"INCLINATION":35.0014,"RA_OF_ASC_NODE":302.0652,"ARG_OF_PERICENTER":78.7259,"MEAN_ANOMALY":281.3806,"EPHEMERIS_TYPE":0,"CLASSIFICATION_TYPE":"U","NORAD_CAT_ID":53524,"ELEMENT_SET_NO":999,"REV_AT_EPOCH":8998,"BSTAR":0.00054878217,"MEAN_MOTION_DOT":0.00018069,"MEAN_MOTION_DDOT":0},{"OBJECT_NAME":"STARLINK-31920","OBJECT_ID":"2024-100Y","EPOCH":"2026-03-09T22:00:01.999584","MEAN_MOTION":15.33615653,"ECCENTRICITY":0.00055131,"INCLINATION":42.9978,"RA_OF_ASC_NODE":90.9988,"ARG_OF_PERICENTER":118.6152,"MEAN_ANOMALY":56.7253,"EPHEMERIS_TYPE":0,"CLASSIFICATION_TYPE":"U","NORAD_CAT_ID":59907,"ELEMENT_SET_NO":999,"REV_AT_EPOCH":580,"BSTAR":0.0037091852,"MEAN_MOTION_DOT":0.00124969,"MEAN_MOTION_DDOT":0}]
